ONEWEB-0492             
1 54114U 22138B   23040.85432777  .00000020  00000+0  18090-4 0  9996
2 54114  87.9341 188.2005 0001185  84.9402 275.1866 13.19726375 15482
ONEWEB-0495             
1 54115U 22138C   23040.83539257  .00000091  00000+0  19594-3 0  9993
2 54115  87.9311 188.1795 0001481  81.7166 278.4135 13.19743929 15463
ONEWEB-0497             
1 54116U 22138D   23040.84591185  .00000077  00000+0  15956-3 0  9995
2 54116  87.9379 188.2255 0001365  95.7303 264.3985 13.19728064 15458
ONEWEB-0499             
1 54117U 22138E   23040.82904356  .00000075  00000+0  15518-3 0  9994
2 54117  87.9479 188.1945 0001759  62.2837 297.8474 13.19693724 15462
ONEWEB-0500             
1 54118U 22138F   23041.08334491 -.00038925  00000+0 -97706-1 0  9995
2 54118  87.9324 188.1783 0001091 128.1699 339.4088 13.19705371 16376
ONEWEB-0501             
1 54119U 22138G   23040.86276959 -.00000009  00000+0 -54304-4 0  9997
2 54119  87.9272 188.2120 0001361  72.7240 287.4041 13.19725954 16326
ONEWEB-0502             
1 54120U 22138H   23040.84801701  .00000009  00000+0 -95446-5 0  9998
2 54120  87.9391 188.2080 0001627  79.7421 280.3895 13.19728215 15475
ONEWEB-0503             
1 54121U 22138J   23040.83748087  .00000086  00000+0  18285-3 0  9993
2 54121  87.9277 188.2205 0001606  87.5130 272.6187 13.19725594 15463
ONEWEB-0504             
1 54122U 22138K   23040.82484212  .00000095  00000+0  20460-3 0  9998
2 54122  87.9364 188.2051 0001825  87.6319 272.5022 13.19722820 15470
ONEWEB-0505             
1 54123U 22138L   23040.82064255  .00000054  00000+0  10366-3 0  9999
2 54123  87.9366 188.2149 0001928  89.5074 270.6279 13.19727282 15452
ONEWEB-0506             
1 54124U 22138M   23040.79535355 -.00000019  00000+0 -79038-4 0  9995
2 54124  87.9392 188.2349 0001581  85.5080 274.6233 13.19722734 16319
ONEWEB-0507             
1 54125U 22138N   23040.81645103  .00000977  00000+0  24070-2 0  9997
2 54125  87.9386 188.2130 0001391  88.8079 271.3213 13.19722374 15494
ONEWEB-0508             
1 54126U 22138P   23040.88802991  .00000068  00000+0  13695-3 0  9998
2 54126  87.9392 188.2230 0002019  71.9451 288.1902 13.19722514 16351
ONEWEB-0509             
1 54127U 22138Q   23041.00001157 -.00039148  00000+0 -98215-1 0  9991
2 54127  87.9322 188.1912 0001733  92.7877 189.1842 13.19742205  1307
ONEWEB-0510             
1 54128U 22138R   23040.89384879  .00000296  00000+0  46484-4 0  9997
2 54128  86.9043 176.5167 0008608 281.1943  78.8305 14.69003511 17116
ONEWEB-0511             
1 54129U 22138S   23040.78482703 -.00000078  00000+0 -22646-3 0  9994
2 54129  87.9376 188.2322 0002043  95.1038 265.0328 13.19722239 15476
ONEWEB-0512             
1 54130U 22138T   23040.85223892  .00000045  00000+0  79538-4 0  9991
2 54130  87.9278 188.2207 0001726  73.9725 286.1598 13.19726667 16322
ONEWEB-0513             
1 54131U 22138U   23040.80166559  .00000067  00000+0  94489-4 0  9999
2 54131  87.7010 188.5001 0001752  93.4428 266.6918 13.41772542 16143
ONEWEB-0514             
1 54132U 22138V   23040.79325647 -.00000108  00000+0 -30292-3 0  9992
2 54132  87.9267 188.2231 0001548 100.7582 259.3725 13.19723371 15468
ONEWEB-0515             
1 54133U 22138W   23040.83386719  .00003515  00000+0  59619-3 0  9992
2 54133  86.9076 176.5203 0009462 269.8871  90.1261 14.68965322 16248
ONEWEB-0516             
1 54134U 22138X   23040.84379473  .00000041  00000+0  69810-4 0  9999
2 54134  87.9280 188.2151 0000781 113.9470 246.1745 13.19723234 16348
ONEWEB-0517             
1 54135U 22138Y   23040.82276350  .00000421  00000+0  10181-2 0  9995
2 54135  87.9345 188.2056 0001754  82.1437 277.9895 13.19725541 15470
ONEWEB-0518             
1 54136U 22138Z   23040.84171635  .00000499  00000+0  12133-2 0  9992
2 54136  87.9329 188.1878 0001220  90.1802 269.9471 13.19724687 15478
ONEWEB-0519             
1 54137U 22138AA  23040.86696000 -.00000044  00000+0 -14144-3 0  9996
2 54137  87.9259 188.2123 0001758  79.4887 280.6444 13.19727135 16353
ONEWEB-0520             
1 54138U 22138AB  23040.82693733  .00000044  00000+0  76551-4 0  9992
2 54138  87.9318 188.2241 0001628  73.4710 286.6602 13.19724919 15466
ONEWEB-0521             
1 54139U 22138AC  23040.47947018  .00000080  00000+0  16682-3 0  9990
2 54139  87.9342 188.2829 0001837  98.2040 261.9301 13.19724760 15364
ONEWEB-0522             
1 54140U 22138AD  23040.83960266  .00000047  00000+0  85153-4 0  9995
2 54140  87.9273 188.2212 0000997 142.1783 217.9420 13.19723579 16321
ONEWEB-0523             
1 54141U 22138AE  23040.82604476  .00003632  00000+0  61571-3 0  9993
2 54141  86.9053 176.5097 0008398 279.7433  80.2834 14.69008943 16248
ONEWEB-0524             
1 54142U 22138AF  23040.82773098  .00003813  00000+0  64777-3 0  9993
2 54142  86.9071 176.5219 0007651 281.6915  78.3442 14.68935197 16245
ONEWEB-0525             
1 54143U 22138AG  23040.85645228  .00000373  00000+0  89981-3 0  9992
2 54143  87.9268 188.2170 0001404 111.3308 248.7974 13.19724793 16343
ONEWEB-0526             
1 54144U 22138AH  23040.81432958  .00000077  00000+0  15918-3 0  9993
2 54144  87.9349 188.2244 0001424  96.0096 264.1199 13.19726447 16317
ONEWEB-0529             
1 54145U 22138AJ  23040.81851516 -.00000458  00000+0 -11765-2 0  9999
2 54145  87.9278 188.2251 0001277  79.1823 280.9453 13.19725367 15467
ONEWEB-0531             
1 54146U 22138AK  23040.83040791  .00003087  00000+0  52280-3 0  9994
2 54146  86.9060 176.5166 0008600 278.5630  81.4611 14.69007887 16242
ONEWEB-0535             
1 54147U 22138AL  23040.85013302 -.00000026  00000+0 -98175-4 0  9991
2 54147  87.9276 188.2132 0001527  99.6009 260.5297 13.19728187 15481
ONEWEB-0536             
1 54148U 22138AM  23040.83646164  .00003556  00000+0  60385-3 0  9998
2 54148  86.9035 176.5325 0008166 273.4096  86.6186 14.68925978 16243
GONETS-M 23             
1 54150U 22139A   23041.02572041  .00000010  00000+0  00000+0 0  9992
2 54150  82.5062  28.3564 0021468  14.1166 346.0510 12.42878839 13698
GONETS-M 24             
1 54151U 22139B   23040.99657917  .00000010  00000+0  00000+0 0  9994
2 54151  82.4988  28.2565 0016634  24.3132 335.8736 12.42877160 13692
GONETS-M 25             
1 54152U 22139C   23041.06182149  .00000010  00000+0  00000+0 0  9994
2 54152  82.5055  28.2483 0020417  22.6350 337.5633 12.42868745 13701
SKIF-D                  
1 54153U 22139D   23038.52423264  .00000028  00000+0  00000+0 0  9997
2 54153  90.0074  96.7767 0006594 199.0591 161.0016  5.00438660  2795
PROGRESS-MS 21          
1 54155U 22140A   23040.53079799  .00020829  00000+0  37472-3 0  9993
2 54155  51.6428 240.8355 0008263 332.1826 119.5515 15.49762373381993
STARLINK-5290           
1 54157U 22141A   23040.24577703  .00024974  00000+0  15813-2 0  9991
2 54157  53.2175  22.0052 0001000  93.8738 266.2369 15.08848766 15965
STARLINK-5297           
1 54158U 22141B   23040.31938675 -.00000264  00000+0  14823-5 0  9999
2 54158  53.2188  21.7490 0001570  82.9554 277.1616 15.08839022 15971
STARLINK-5294           
1 54159U 22141C   23040.22093735 -.00003495  00000+0 -20164-3 0  9992
2 54159  53.2195  21.8591 0001177 113.4709 246.6407 15.08834396 15965
STARLINK-5233           
1 54160U 22141D   23040.28781299  .00000294  00000+0  65018-5 0  9990
2 54160  53.2152 347.9913 0000957  95.0268 265.0861 15.73217821 16443
STARLINK-5269           
1 54161U 22141E   23040.97810635  .00000837  00000+0  70711-4 0  9992
2 54161  53.2182  18.7537 0000939 102.6977 257.4120 15.08824982 16076
STARLINK-5273           
1 54162U 22141F   23040.44080628  .00044613  00000+0  28010-2 0  9999
2 54162  53.2169  21.0913 0001224 119.4750 240.6365 15.08873685 15999
STARLINK-5161           
1 54163U 22141G   23040.18783292 -.00002672  00000+0 -14983-3 0  9994
2 54163  53.2197  12.3680 0001408  88.8656 271.2497 15.08841317 16098
STARLINK-5278           
1 54164U 22141H   23040.39023598  .00031664  00000+0  19976-2 0  9991
2 54164  53.2175  11.5025 0001396  79.1885 280.9264 15.08859205 16120
STARLINK-5279           
1 54165U 22141J   23040.43712211  .00042507  00000+0  26706-2 0  9991
2 54165  53.2162  21.0707 0001261 113.9162 246.1962 15.08870836 15992
STARLINK-5280           
1 54166U 22141K   23040.31662743 -.00002660  00000+0 -14907-3 0  9992
2 54166  53.2192  11.7522 0001432  90.0817 270.0339 15.08841516 16111
STARLINK-5243           
1 54167U 22141L   23040.21725397  .00000836  00000+0  70575-4 0  9992
2 54167  53.2175  21.8264 0001304  87.7008 272.4134 15.08843901 15962
STARLINK-5245           
1 54168U 22141M   23040.31294093  .00009683  00000+0  62553-3 0  9993
2 54168  53.2162  11.7305 0001570  75.1436 284.9730 15.08844545 16117
STARLINK-5282           
1 54169U 22141N   23040.32759345 -.00001667  00000+0 -86660-4 0  9993
2 54169  53.2203  11.1180 0001361 103.9583 256.1561 15.08841172 16127
STARLINK-5155           
1 54170U 22141P   23040.30925799  .00004298  00000+0  28788-3 0  9998
2 54170  53.2194  11.7069 0001238  92.3915 267.7219 15.08853415 16102
STARLINK-5229           
1 54171U 22141Q   23040.61332232 -.00001301  00000+0 -63713-4 0  9999
2 54171  53.2187  15.0352 0001754  87.1066 273.0126 15.08820468 16096
STARLINK-5117           
1 54172U 22141R   23040.43436192  .00049769  00000+0  31199-2 0  9999
2 54172  53.2182  11.0689 0001541  82.1167 278.0000 15.08878525 16130
STARLINK-5242           
1 54173U 22141S   23040.33124428  .00000414  00000+0  44082-4 0  9996
2 54173  53.2187  11.1391 0001121  91.9524 268.1597 15.08872943 16124
STARLINK-5248           
1 54174U 22141T   23040.35074044  .00000097  00000+0  51059-5 0  9997
2 54174  53.2165 346.9388 0001250 134.2883 225.8240 15.73200575 16468
STARLINK-5256           
1 54175U 22141U   23040.43804894  .00045900  00000+0  28808-2 0  9996
2 54175  53.2166  11.0884 0001271 105.5634 254.5499 15.08872572 16138
